NORAD_CAT_ID,OBJECT_NAME,OBJECT_TYPE,EPOCH,MEAN_MOTION,ECCENTRICITY,INCLINATION,RA_OF_ASC_NODE,ARG_OF_PERICENTER,MEAN_ANOMALY,BSTAR,MEAN_MOTION_DOT,MEAN_MOTION_DDOT,TLE_LINE0,TLE_LINE1,TLE_LINE2,SEMIMAJOR_AXIS,PERIOD,APOGEE,PERIGEE,DECAYED
53560.0,STARLINK-4564,PAYLOAD,2024-05-08 03:33:52,15.08841434,0.0001319,53.2144,184.4831,84.2904,275.8238,-0.00011521,-2.121e-05,0.0,0 STARLINK-4564,1 53560U 22101AK  24129.14852691 -.00002121  00000-0 -11521-3 0  9990,2 53560  53.2144 184.4831 0001319  84.2904 275.8238 15.08841434 95210,6917.876,95.437,540.653,538.829,0.0
53560.0,STARLINK-4564,PAYLOAD,2024-05-08 09:55:26,15.08832002,0.0001261,53.2151,183.2911,90.6601,269.4536,-1.7089e-05,-5.6e-06,0.0,0 STARLINK-4564,1 53560U 22101AK  24129.41349917 -.00000560  00000-0 -17089-4 0  9993,2 53560  53.2151 183.2911 0001261  90.6601 269.4536 15.08832002 95250,6917.905,95.438,540.642,538.897,0.0
53560.0,STARLINK-4564,PAYLOAD,2024-05-08 21:03:07,15.08843113,0.0001184,53.2157,181.2101,84.3109,275.8019,-1.4266e-05,-5.15e-06,0.0,0 STARLINK-4564,1 53560U 22101AK  24129.87717032 -.00000515  00000-0 -14266-4 0  9994,2 53560  53.2157 181.2101 0001184  84.3109 275.8019 15.08843113 95322,6917.871,95.437,540.555,538.917,0.0
53560.0,STARLINK-4564,PAYLOAD,2024-05-09 09:46:11,15.08847853,0.0001176,53.2155,178.8314,82.9278,277.1848,0.000171,2.435e-05,0.0,0 STARLINK-4564,1 53560U 22101AK  24130.40708190  .00002435  00000-0  17100-3 0  9990,2 53560  53.2155 178.8314 0001176  82.9278 277.1848 15.08847853 95409,6917.856,95.437,540.535,538.908,0.0
53560.0,STARLINK-4564,PAYLOAD,2024-05-10 12:47:46,15.08837587,0.0001152,53.2162,173.7742,91.2603,268.8521,0.00012021,1.626e-05,0.0,0 STARLINK-4564,1 53560U 22101AK  24131.53317264  .00001626  00000-0  12021-3 0  9991,2 53560  53.2162 173.7742 0001152  91.2603 268.8521 15.08837587 95571,6917.888,95.438,540.55,538.956,0.0
53560.0,STARLINK-4564,PAYLOAD,2024-05-11 03:06:13,15.08858602,0.0001279,53.2176,171.0989,92.9679,267.146,0.00016755,2.381e-05,0.0,0 STARLINK-4564,1 53560U 22101AK  24132.12932447  .00002381  00000-0  16755-3 0  9990,2 53560  53.2176 171.0989 0001279  92.9679 267.1460 15.08858602 95666,6917.824,95.436,540.573,538.804,0.0
53560.0,STARLINK-4564,PAYLOAD,2024-05-11 12:38:30,15.08892427,0.0001368,53.2148,169.3129,85.571,274.5438,0.00064621,0.00010026,0.0,0 STARLINK-4564,1 53560U 22101AK  24132.52673693  .00010026  00000-0  64621-3 0  9999,2 53560  53.2148 169.3129 0001368  85.5710 274.5438 15.08892427 95721,6917.72,95.434,540.531,538.639,0.0
53560.0,STARLINK-4564,PAYLOAD,2024-05-11 19:00:03,15.08866135,0.0002383,53.2161,168.1251,86.0683,274.0581,0.00032252,4.852e-05,0.0,0 STARLINK-4564,1 53560U 22101AK  24132.79171151  .00004852  00000-0  32252-3 0  9995,2 53560  53.2161 168.1251 0002383  86.0683 274.0581 15.08866135 95767,6917.801,95.436,541.314,538.017,0.0
53560.0,STARLINK-4564,PAYLOAD,2024-05-12 02:56:59,15.08863031,0.0003474,53.2152,166.6392,83.0159,277.1228,0.00031041,4.658e-05,0.0,0 STARLINK-4564,1 53560U 22101AK  24133.12291258  .00004658  00000-0  31041-3 0  9993,2 53560  53.2152 166.6392 0003474  83.0159 277.1228 15.08863031 95813,6917.81,95.436,542.078,537.272,0.0
53560.0,STARLINK-4564,PAYLOAD,2024-05-12 10:53:58,15.08762628,0.0001161,53.215,165.1533,95.5464,264.5661,-0.0017624,-0.00028167,0.0,0 STARLINK-4564,1 53560U 22101AK  24133.45414895 -.00028167  00000-0 -17624-2 0  9996,2 53560  53.2150 165.1533 0001161  95.5464 264.5661 15.08762628 95866,6918.117,95.442,540.785,539.179,0.0
53560.0,STARLINK-4564,PAYLOAD,2024-05-12 18:50:54,15.08788784,5.62e-05,53.2149,163.6668,106.5525,253.5529,-0.00072696,-0.00011822,0.0,0 STARLINK-4564,1 53560U 22101AK  24133.78534727 -.00011822  00000-0 -72696-3 0  9990,2 53560  53.2149 163.6668 0000562 106.5525 253.5529 15.08788784 95919,6918.037,95.441,540.291,539.513,0.0
53560.0,STARLINK-4564,PAYLOAD,2024-05-13 10:44:46,15.08817502,0.000158,53.2139,160.694,92.6625,267.4548,0.0010093,0.00015802,0.0,0 STARLINK-4564,1 53560U 22101AK  24134.44776338  .00015802  00000-0  10093-2 0  9992,2 53560  53.2139 160.6940 0001580  92.6625 267.4548 15.08817502 96013,6917.949,95.439,540.907,538.721,0.0
53560.0,STARLINK-4564,PAYLOAD,2024-05-14 07:24:47,15.08836171,0.0001541,53.2144,156.8266,86.9069,273.2099,0.00078951,0.00012298,0.0,0 STARLINK-4564,1 53560U 22101AK  24135.30888590  .00012298  00000-0  78951-3 0  9996,2 53560  53.2144 156.8266 0001541  86.9069 273.2099 15.08836171 96145,6917.892,95.438,540.823,538.691,0.0
53560.0,STARLINK-4564,PAYLOAD,2024-05-14 18:32:29,15.08852767,0.0001585,53.2143,154.7446,85.7753,274.3421,0.00051909,7.986e-05,0.0,0 STARLINK-4564,1 53560U 22101AK  24135.77255838  .00007986  00000-0  51909-3 0  9992,2 53560  53.2143 154.7446 0001585  85.7753 274.3421 15.08852767 96214,6917.841,95.437,540.803,538.61,0.0
53560.0,STARLINK-4564,PAYLOAD,2024-05-15 08:50:56,15.0887209,0.0001612,53.2142,152.0674,86.3937,273.7239,0.00074529,0.00011604,0.0,0 STARLINK-4564,1 53560U 22101AK  24136.36870722  .00011604  00000-0  74529-3 0  9998,2 53560  53.2142 152.0674 0001612  86.3937 273.7239 15.08872090 96300,6917.782,95.436,540.762,538.532,0.0
53560.0,STARLINK-4564,PAYLOAD,2024-05-16 10:17:05,15.08860197,0.0001575,53.2141,147.3098,86.033,274.0842,0.00013932,1.931e-05,0.0,0 STARLINK-4564,1 53560U 22101AK  24137.42853577  .00001931  00000-0  13932-3 0  9998,2 53560  53.2141 147.3098 0001575  86.0330 274.0842 15.08860197 96464,6917.819,95.436,540.773,538.594,0.0
53560.0,STARLINK-4564,PAYLOAD,2024-05-16 18:14:00,15.08862125,0.0001695,53.215,145.8227,90.8273,269.2913,0.00013771,1.906e-05,0.0,0 STARLINK-4564,1 53560U 22101AK  24137.75973047  .00001906  00000-0  13771-3 0  9992,2 53560  53.2150 145.8227 0001695  90.8273 269.2913 15.08862125 96517,6917.813,95.436,540.85,538.505,0.0
53560.0,STARLINK-4564,PAYLOAD,2024-05-17 05:21:42,15.08854336,0.0001874,53.215,143.7411,118.3069,241.8112,-2.6263e-05,-7.06e-06,0.0,0 STARLINK-4564,1 53560U 22101AK  24138.22340935 -.00000706  00000-0 -26263-4 0  9999,2 53560  53.2150 143.7411 0001874 118.3069 241.8112 15.08854336 96586,6917.837,95.437,540.998,538.405,0.0
53560.0,STARLINK-4564,PAYLOAD,2024-05-17 06:57:05,15.0885178,0.0002008,53.2172,143.4406,127.6555,232.462,-9.6084e-05,-1.818e-05,0.0,0 STARLINK-4564,1 53560U 22101AK  24138.28964985 -.00001818  00000-0 -96084-4 0  9995,2 53560  53.2172 143.4406 0002008 127.6555 232.4620 15.08851780 96595,6917.844,95.437,541.098,538.32,0.0
53560.0,STARLINK-4564,PAYLOAD,2024-05-18 05:12:29,15.08844232,0.0001778,53.2163,139.2793,112.0656,248.0525,-9.1546e-06,-4.34e-06,0.0,0 STARLINK-4564,1 53560U 22101AK  24139.21701132 -.00000434  00000-0 -91546-5 0  9994,2 53560  53.2163 139.2793 0001778 112.0656 248.0525 15.08844232 96737,6917.867,95.437,540.962,538.502,0.0
53560.0,STARLINK-4564,PAYLOAD,2024-05-18 06:47:53,15.08843179,0.0001528,53.2152,138.9833,91.6142,268.5025,-3.4672e-06,-3.43e-06,0.0,0 STARLINK-4564,1 53560U 22101AK  24139.28325254 -.00000343  00000-0 -34672-5 0  9994,2 53560  53.2152 138.9833 0001528  91.6142 268.5025 15.08843179 96743,6917.871,95.437,540.793,538.679,0.0
53560.0,STARLINK-4564,PAYLOAD,2024-05-19 03:27:54,15.08832374,0.0001993,53.215,135.1158,120.8421,239.2767,9.4774e-06,-1.37e-06,0.0,0 STARLINK-4564,1 53560U 22101AK  24140.14437711 -.00000137  00000-0  94774-5 0  9992,2 53560  53.2150 135.1158 0001993 120.8421 239.2767 15.08832374 96878,6917.904,95.438,541.147,538.39,0.0
53560.0,STARLINK-4564,PAYLOAD,2024-05-19 06:38:40,15.08830694,0.0001432,53.2147,134.5218,89.6952,270.4204,-6.104e-06,-3.85e-06,0.0,0 STARLINK-4564,1 53560U 22101AK  24140.27686024 -.00000385  00000-0 -61040-5 0  9995,2 53560  53.2147 134.5218 0001432  89.6952 270.4204 15.08830694 96891,6917.909,95.438,540.764,538.783,0.0
53560.0,STARLINK-4564,PAYLOAD,2024-05-20 04:54:04,15.08839916,0.0001367,53.2156,130.3582,89.651,270.4639,9.9678e-05,1.299e-05,0.0,0 STARLINK-4564,1 53560U 22101AK  24141.20421753  .00001299  00000-0  99678-4 0  9995,2 53560  53.2156 130.3582 0001367  89.6510 270.4639 15.08839916 97031,6917.881,95.438,540.691,538.8,0.0
53560.0,STARLINK-4564,PAYLOAD,2024-05-21 07:55:38,15.08835732,0.0001335,53.2155,125.3025,87.7427,272.3718,0.00012801,1.75e-05,0.0,0 STARLINK-4564,1 53560U 22101AK  24142.33030178  .00001750  00000-0  12801-3 0  9991,2 53560  53.2155 125.3025 0001335  87.7427 272.3718 15.08835732 97207,6917.893,95.438,540.682,538.835,0.0
53560.0,STARLINK-4564,PAYLOAD,2024-05-22 06:11:01,15.08844005,0.0001395,53.2161,121.141,88.1053,272.0099,6.3445e-05,7.22e-06,0.0,0 STARLINK-4564,1 53560U 22101AK  24143.25765843  .00000722  00000-0  63445-4 0  9996,2 53560  53.2161 121.1410 0001395  88.1053 272.0099 15.08844005 97349,6917.868,95.437,540.698,538.768,0.0
53560.0,STARLINK-4564,PAYLOAD,2024-05-23 04:26:25,15.0883672,0.0001466,53.2169,116.9778,84.3163,275.7996,4.9899e-05,5.06e-06,0.0,0 STARLINK-4564,1 53560U 22101AK  24144.18502306  .00000506  00000-0  49899-4 0  9999,2 53560  53.2169 116.9778 0001466  84.3163 275.7996 15.08836720 97481,6917.89,95.438,540.77,538.741,0.0
53560.0,STARLINK-4564,PAYLOAD,2024-05-23 06:01:49,15.08836405,0.0001374,53.2163,116.6804,85.7564,274.3585,4.0153e-05,3.51e-06,0.0,0 STARLINK-4564,1 53560U 22101AK  24144.25126320  .00000351  00000-0  40153-4 0  9997,2 53560  53.2163 116.6804 0001374  85.7564 274.3585 15.08836405 97490,6917.891,95.438,540.707,538.806,0.0
53560.0,STARLINK-4564,PAYLOAD,2024-05-24 07:27:58,15.08843806,0.0001349,53.2164,111.9223,87.588,272.5266,5.5111e-05,5.89e-06,0.0,0 STARLINK-4564,1 53560U 22101AK  24145.31109849  .00000589  00000-0  55111-4 0  9995,2 53560  53.2164 111.9223 0001349  87.5880 272.5266 15.08843806 97654,6917.869,95.437,540.667,538.801,0.0
53560.0,STARLINK-4564,PAYLOAD,2024-05-25 04:08:00,15.08832266,0.0001212,53.2159,108.0554,98.2868,261.8261,3.2629e-05,2.31e-06,0.0,0 STARLINK-4564,1 53560U 22101AK  24146.17222637  .00000231  00000-0  32629-4 0  9994,2 53560  53.2159 108.0554 0001212  98.2868 261.8261 15.08832266 97784,6917.904,95.438,540.607,538.931,0.0
